GLOBALSTAR M023         
1 25621U 99004A   25330.59812446 -.00000060  00000+0  24394-3 0  9991
2 25621  52.0115 278.8928 0010277 123.1714  47.9066 12.62510024236244
GLOBALSTAR M040         
1 25622U 99004B   25330.23310935 -.00000075  00000+0  15930-3 0  9991
2 25622  51.9929 284.3980 0001399  35.5213 102.5833 12.62023561235717
GLOBALSTAR M036         
1 25623U 99004C   25330.87977858 -.00000043  00000+0  57995-3 0  9997
2 25623  51.9932 171.4927 0010868   7.6522  95.0514 11.86618066198291
GLOBALSTAR M038         
1 25624U 99004D   25330.47322743 -.00000061  00000+0  28130-3 0  9990
2 25624  51.9991 324.2028 0002051  33.9924 134.0097 12.32536429222382
GLOBALSTAR M022         
1 25649U 99012A   25330.83131339 -.00000052  00000+0  42066-3 0  9999
2 25649  52.0023 208.7587 0003304 116.7030 323.0430 12.02507212195940
GLOBALSTAR M041         
1 25650U 99012B   25330.59387727 -.00000080  00000+0  69822-4 0  9999
2 25650  52.0009  95.8031 0000441 260.2765  99.8021 11.96680929197725
GLOBALSTAR M046         
1 25651U 99012C   25330.83796292  .00000052  00000+0  15551-2 0  9994
2 25651  52.0022 152.9363 0001601 182.4115 282.2252 12.09417177203345
GLOBALSTAR M037         
1 25652U 99012D   25330.54947730 -.00000001  00000+0  57213-3 0  9995
2 25652  52.0024  49.5981 0002343 173.5486 200.8565 12.62456944231787
